STARLINK-35738          
1 67116U 25299Q   26159.85899271  .00020636  00000+0  75693-3 0  9999
2 67116  42.9995  13.7496 0001887 270.6824  89.3811 15.27597011 27067
STARLINK-35674          
1 67117U 25299R   26159.88469520  .00019349  00000+0  71058-3 0  9993
2 67117  42.9933  13.9416 0002232 269.3071  90.7525 15.27589363 27067
STARLINK-35701          
1 67118U 25299S   26160.16670139  .00008286  00000+0  31023-3 0  9993
2 67118  43.0018  12.1603 0001720 268.8292 281.7064 15.27588233  5851
STARLINK-36179          
1 67119U 25299T   26159.88084056  .00015350  00000+0  56604-3 0  9990
2 67119  42.9988  13.9122 0002252 269.8601  90.1993 15.27586336 27069
STARLINK-36217          
1 67120U 25299U   26159.00004630  .00060060  00000+0  21761-2 0  9999
2 67120  43.0038  19.2799 0001795 296.3781  91.4482 15.27553070  5919
STARLINK-36124          
1 67121U 25299V   26159.89625892  .00020924  00000+0  76746-3 0  9995
2 67121  42.9998  14.0317 0001929 256.9085 103.1551 15.27590826 27068
STARLINK-36188          
1 67122U 25299W   26159.90397723  .00024591  00000+0  89910-3 0  9998
2 67122  43.0011  14.0897 0001512 255.8432 104.2251 15.27619103 27061
STARLINK-36151          
1 67123U 25299X   26159.87312792  .00016436  00000+0  60526-3 0  9999
2 67123  43.0030  13.8541 0003194 275.5646  84.4841 15.27589630 27065
STARLINK-36195          
1 67124U 25299Y   26159.52436939  .00016554  00000+0  60944-3 0  9997
2 67124  43.0047  15.5384 0002407 258.0828 101.9754 15.27594963 27010
STARLINK-36219          
1 67125U 25299Z   26159.88597729  .00022454  00000+0  82253-3 0  9995
2 67125  42.9971  13.9488 0001102 278.0012  82.0714 15.27598462 27068
STARLINK-36223          
1 67126U 25299AA  26158.89747175  .00017532  00000+0  64466-3 0  9995
2 67126  43.0013  19.4323 0002265 116.4321 243.6764 15.27602081 26912
STARLINK-36164          
1 67127U 25299AB  26159.92951911  .00026827  00000+0  98012-3 0  9997
2 67127  43.0017  13.4166 0001462 284.3354  75.7335 15.27604523 27074
STARLINK-35685          
1 67128U 25299AC  26159.86670542  .00023118  00000+0  84661-3 0  9994
2 67128  43.0037  13.8112 0002383 266.0564  94.0015 15.27592541 27069
STARLINK-36214          
1 67129U 25299AD  26158.34368162  .00025159  00000+0  91995-3 0  9994
2 67129  43.0026  23.0170 0000826 278.0770  81.9988 15.27605967 26821
STARLINK-36194          
1 67130U 25299AE  26159.88212465  .00015505  00000+0  57119-3 0  9994
2 67130  43.0084  13.9212 0000564 188.6132 171.4710 15.27613944 27068
STARLINK-35755          
1 67163U 25303A   26158.71568963  .00018956  00000+0  69630-3 0  9998
2 67163  43.0026 162.2815 0000355  83.3536 276.7356 15.27593614 26508
STARLINK-36201          
1 67164U 25303B   26159.93106096  .00016001  00000+0  58951-3 0  9992
2 67164  42.9988 155.0609 0001025 276.4497  83.6237 15.27590883 26699
STARLINK-36186          
1 67165U 25303C   26157.71175876  .00018808  00000+0  69078-3 0  9998
2 67165  42.9970 167.6409 0004024 286.6917  73.3493 15.27597404 26359
STARLINK-36174          
1 67166U 25303D   26158.70540179  .00015288  00000+0  56382-3 0  9994
2 67166  42.9973 162.2089 0001895 266.9620  93.1014 15.27585237 26500
STARLINK-36198          
1 67167U 25303E   26158.28753701  .00024503  00000+0  89583-3 0  9994
2 67167  42.9979 165.0917 0001763 278.1683  81.8969 15.27621891 26438
STARLINK-35903          
1 67168U 25303F   26158.70283197  .00027645  00000+0  10099-2 0  9994
2 67168  42.9918 162.1828 0002200 279.3861  80.6741 15.27594693 26501
STARLINK-35839          
1 67169U 25303G   26157.30930816  .00022438  00000+0  82203-3 0  9999
2 67169  43.0002 170.6524 0002979 284.7194  75.3327 15.27594159 26280
STARLINK-35863          
1 67170U 25303H   26159.71832506  .00017633  00000+0  64865-3 0  9990
2 67170  43.0034 156.9084 0002263 255.3936 104.6665 15.27585431 26654
STARLINK-35771          
1 67171U 25303J   26158.28496248  .00019084  00000+0  70082-3 0  9991
2 67171  43.0011 165.0720 0003102 274.2718  85.7780 15.27596756 26434
STARLINK-35762          
1 67172U 25303K   26159.72090944  .00017423  00000+0  64089-3 0  9990
2 67172  42.9955 156.9292 0001807  82.8938 277.2119 15.27592747 26654
STARLINK-36183          
1 67173U 25303L   26158.73239320  .00020621  00000+0  75664-3 0  9999
2 67173  43.0034 162.4131 0001673 271.0038  89.0622 15.27585496 26508
STARLINK-36210          
1 67174U 25303M   26158.72596465  .00018714  00000+0  68787-3 0  9993
2 67174  43.0020 162.3626 0003324 269.2254  90.8217 15.27575693 26504
STARLINK-35756          
1 67175U 25303N   26158.33337963  .00010741  00000+0  39940-3 0  9998
2 67175  43.0030 164.5429 0001486 273.8675  98.8907 15.27570225  5884
STARLINK-35785          
1 67176U 25303P   26158.71824790  .00015210  00000+0  56078-3 0  9997
2 67176  42.9962 162.2993 0002398 269.6937  90.3640 15.27596682 26503
STARLINK-35853          
1 67177U 25303Q   26158.72211043  .00004549  00000+0  17471-3 0  9997
2 67177  42.9987 162.3190 0003374 293.1192  66.9304 15.27586635 26504
