OBJECT_NAME,OBJECT_ID,EPOCH,MEAN_MOTION,ECCENTRICITY,INCLINATION,RA_OF_ASC_NODE,ARG_OF_PERICENTER,MEAN_ANOMALY,EPHEMERIS_TYPE,CLASSIFICATION_TYPE,NORAD_CAT_ID,ELEMENT_SET_NO,REV_AT_EPOCH,BSTAR,MEAN_MOTION_DOT,MEAN_MOTION_DDOT
STARLINK-35738,2025-299Q,2026-06-08T20:36:56.970144,15.27597011,.0001887,42.9995,13.7496,270.6824,89.3811,0,U,67116,999,2706,.75693E-3,.20636E-3,0
STARLINK-35674,2025-299R,2026-06-08T21:13:57.665280,15.27589363,.0002232,42.9933,13.9416,269.3071,90.7525,0,U,67117,999,2706,.71058E-3,.19349E-3,0
STARLINK-35701,2025-299S,2026-06-09T04:00:03.000096,15.27588233,.000172,43.0018,12.1603,268.8292,281.7064,0,U,67118,999,585,.31023E-3,.8286E-4,0
STARLINK-36179,2025-299T,2026-06-08T21:08:24.624384,15.27586336,.0002252,42.9988,13.9122,269.8601,90.1993,0,U,67119,999,2706,.56604E-3,.1535E-3,0
STARLINK-36217,2025-299U,2026-06-08T00:00:04.000320,15.27553070,.00017958,43.0038,19.2799,296.3781,91.4482,0,U,67120,999,591,.21761131E-2,.6006E-3,0
STARLINK-36124,2025-299V,2026-06-08T21:30:36.770688,15.27590826,.0001929,42.9998,14.0317,256.9085,103.1551,0,U,67121,999,2706,.76746E-3,.20924E-3,0
STARLINK-36188,2025-299W,2026-06-08T21:41:43.632672,15.27619103,.0001512,43.0011,14.0897,255.8432,104.2251,0,U,67122,999,2706,.8991E-3,.24591E-3,0
STARLINK-36151,2025-299X,2026-06-08T20:57:18.252288,15.27589630,.0003194,43.0030,13.8541,275.5646,84.4841,0,U,67123,999,2706,.60526E-3,.16436E-3,0
STARLINK-36195,2025-299Y,2026-06-08T12:35:05.515296,15.27594963,.00024073,43.0047,15.5384,258.0828,101.9754,0,U,67124,999,2701,.60944262E-3,.16554E-3,0
STARLINK-36219,2025-299Z,2026-06-08T21:15:48.437856,15.27598462,.0001102,42.9971,13.9488,278.0012,82.0714,0,U,67125,999,2706,.82253E-3,.22454E-3,0
STARLINK-36223,2025-299AA,2026-06-07T21:32:21.559200,15.27602081,.00022655,43.0013,19.4323,116.4321,243.6764,0,U,67126,999,2691,.64466224E-3,.17532E-3,0
STARLINK-36164,2025-299AB,2026-06-08T22:18:30.451104,15.27604523,.0001462,43.0017,13.4166,284.3354,75.7335,0,U,67127,999,2707,.98012E-3,.26827E-3,0
STARLINK-35685,2025-299AC,2026-06-08T20:48:03.348288,15.27592541,.0002383,43.0037,13.8112,266.0564,94.0015,0,U,67128,999,2706,.84661E-3,.23118E-3,0
STARLINK-36214,2025-299AD,2026-06-07T08:14:54.091968,15.27605967,.00008261,43.0026,23.0170,278.0770,81.9988,0,U,67129,999,2682,.91995477E-3,.25159E-3,0
STARLINK-36194,2025-299AE,2026-06-08T21:10:15.569760,15.27613944,.0000564,43.0084,13.9212,188.6132,171.4710,0,U,67130,999,2706,.57119E-3,.15505E-3,0
STARLINK-35755,2025-303A,2026-06-07T17:10:35.584032,15.27593614,.00003551,43.0026,162.2815,83.3536,276.7356,0,U,67163,999,2650,.69629697E-3,.18956E-3,0
STARLINK-36201,2025-303B,2026-06-08T22:20:43.666944,15.27590883,.0001025,42.9988,155.0609,276.4497,83.6237,0,U,67164,999,2669,.58951E-3,.16001E-3,0
STARLINK-36186,2025-303C,2026-06-06T17:04:55.956864,15.27597404,.00040243,42.9970,167.6409,286.6917,73.3493,0,U,67165,999,2635,.69077692E-3,.18808E-3,0
STARLINK-36174,2025-303D,2026-06-07T16:55:46.714656,15.27585237,.0001895,42.9973,162.2089,266.9620,93.1014,0,U,67166,999,2650,.56382092E-3,.15288E-3,0
STARLINK-36198,2025-303E,2026-06-07T06:54:03.197664,15.27621891,.0001763,42.9979,165.0917,278.1683,81.8969,0,U,67167,999,2643,.89583E-3,.24503E-3,0
STARLINK-35903,2025-303F,2026-06-07T16:52:04.682208,15.27594693,.00022001,42.9918,162.1828,279.3861,80.6741,0,U,67168,999,2650,.10098733E-2,.27645E-3,0
STARLINK-35839,2025-303G,2026-06-06T07:25:24.225024,15.27594159,.00029793,43.0002,170.6524,284.7194,75.3327,0,U,67169,999,2628,.82202601E-3,.22438E-3,0
STARLINK-35863,2025-303H,2026-06-08T17:14:23.285184,15.27585431,.0002263,43.0034,156.9084,255.3936,104.6665,0,U,67170,999,2665,.64865E-3,.17633E-3,0
STARLINK-35771,2025-303J,2026-06-07T06:50:20.758272,15.27596756,.0003102,43.0011,165.0720,274.2718,85.7780,0,U,67171,999,2643,.70082E-3,.19084E-3,0
STARLINK-35762,2025-303K,2026-06-08T17:18:06.575616,15.27592747,.0001807,42.9955,156.9292,82.8938,277.2119,0,U,67172,999,2665,.64089E-3,.17423E-3,0
STARLINK-36183,2025-303L,2026-06-07T17:34:38.772480,15.27585496,.00016731,43.0034,162.4131,271.0038,89.0622,0,U,67173,999,2650,.75663948E-3,.20621E-3,0
STARLINK-36210,2025-303M,2026-06-07T17:25:23.345760,15.27575693,.00033249,43.0020,162.3626,269.2254,90.8217,0,U,67174,999,2650,.68786889E-3,.18714E-3,0
STARLINK-35756,2025-303N,2026-06-07T08:00:04.000032,15.27570225,.00014865,43.0030,164.5429,273.8675,98.8907,0,U,67175,999,588,.39939682E-3,.10741E-3,0
STARLINK-35785,2025-303P,2026-06-07T17:14:16.618560,15.27596682,.0002398,42.9962,162.2993,269.6937,90.3640,0,U,67176,999,2650,.56078111E-3,.1521E-3,0
STARLINK-35853,2025-303Q,2026-06-07T17:19:50.341152,15.27586635,.00033747,42.9987,162.3190,293.1192,66.9304,0,U,67177,999,2650,.17470921E-3,.4549E-4,0
